CAS500-2 RIDESHARE OBJE*
1 68998U 26100U   26129.83337963 -.00062115  00000+0 -58757-2 0  9991
2 68998  97.6959  26.8350 0011837 323.9998   6.0430 14.93948487  1308
