{
  "norad_id": 68998,
  "name": "CAS500-2 RIDESHARE OBJECT U",
  "history": [
    {
      "epoch": "2026-05-09T20:00:04.000032Z",
      "apogee_km": 593.8814840580835,
      "perigee_km": 577.3954420268774,
      "latitude_deg": -29.907614061567813,
      "longitude_deg": -136.39329131009234,
      "height_km": 588.7076788702043,
      "semi_major_axis_km": 6963.775463042481,
      "eccentricity": 0.0011837,
      "inclination_deg": 97.6959,
      "raan_deg": 26.835,
      "arg_perigee_deg": 323.9998,
      "mean_anomaly_deg": 6.043,
      "mean_motion_rev_day": 14.93948487
    }
  ]
}